[{"OBJECT_NAME":"M2 PATHFINDER","OBJECT_ID":"2020-037E","EPOCH":"2026-03-09T11:30:45.742176","MEAN_MOTION":15.04175941,"ECCENTRICITY":0.00124059,"INCLINATION":97.8158,"RA_OF_ASC_NODE":258.5983,"ARG_OF_PERICENTER":127.8041,"MEAN_ANOMALY":232.431,"EPHEMERIS_TYPE":0,"CLASSIFICATION_TYPE":"U","NORAD_CAT_ID":45727,"ELEMENT_SET_NO":999,"REV_AT_EPOCH":31050,"BSTAR":0.00032591881,"MEAN_MOTION_DOT":4.468e-5,"MEAN_MOTION_DDOT":0},{"OBJECT_NAME":"STARLINK-5984","OBJECT_ID":"2023-058N","EPOCH":"2026-03-09T22:10:52.604544","MEAN_MOTION":15.05648411,"ECCENTRICITY":0.00018782,"INCLINATION":97.604,"RA_OF_ASC_NODE":71.4743,"ARG_OF_PERICENTER":71.1743,"MEAN_ANOMALY":288.9687,"EPHEMERIS_TYPE":0,"CLASSIFICATION_TYPE":"U","NORAD_CAT_ID":56329,"ELEMENT_SET_NO":999,"REV_AT_EPOCH":15823,"BSTAR":0.00013117499,"MEAN_MOTION_DOT":1.832e-5,"MEAN_MOTION_DDOT":0}]
